EUTELSAT 21B            
1 38992U 12062B   25279.14203520  .00000132  00000+0  00000+0 0  9998
2 38992   0.0731  14.0808 0002908 189.0772 244.6382  1.00274089 47289
EUTELSAT 70B            
1 39020U 12069A   25279.10893139 -.00000041  00000+0  00000+0 0  9995
2 39020   0.0659   1.7810 0004119 195.3135 287.6529  1.00271411 46966
EUTELSAT 117 WEST A     
1 39122U 13012A   25279.18844845 -.00000011  00000+0  00000+0 0  9992
2 39122   0.0484  55.6992 0002703 139.9906 130.4660  1.00271540 45885
EUTELSAT 7B             
1 39163U 13022A   25279.13905641  .00000049  00000+0  00000+0 0  9995
2 39163   0.0705 359.5965 0001545 321.1498 111.3846  1.00266718 45409
EXPRESS-AT1             
1 39612U 14010A   25279.14888190  .00000080  00000+0  00000+0 0  9997
2 39612   0.0015 174.3722 0000446 310.8310 359.5011  1.00273624 42279
EXPRESS-AT2             
1 39613U 14010B   25278.93641897 -.00000280  00000+0  00000+0 0  9998
2 39613   0.0177 243.9529 0001282 230.5790  17.2966  1.00264490 41958
EUTELSAT 3B             
1 39773U 14030A   25279.06702301  .00000022  00000+0  00000+0 0  9993
2 39773   0.0659   4.0180 0004534 186.4862 211.7155  1.00271217 41519
EUTELSAT 115 WEST B     
1 40425U 15010B   25279.18990817 -.00000023  00000+0  00000+0 0  9994
2 40425   0.0250  43.6305 0000404  61.5914 223.3612  1.00271904 38845
